start=new Date('2023-04-29T00:00:00.000Z').valueOf();
sats=[{"MEAN_MOTION":"15.06399195","SEMIMAJOR_AXIS":"6925.351","INCLINATION":"53.0535","REF_FRAME":"TEME","TLE_LINE2":"2 45360  53.0535 153.6720 0001658  80.2881 279.8295 15.06399195172439","PERIAPSIS":"546.068","CLASSIFICATION_TYPE":"U","OBJECT_ID":"2020-019A","TLE_LINE1":"1 45360U 20019A   23118.38198336  .00005416  00000-0  38222-3 0  9992","ARG_OF_PERICENTER":"80.2881","SITE":"AFETR","BSTAR":"0.00038222000000","TIME_SYSTEM":"UTC","APOAPSIS":"548.364","DECAY_DATE":null,"MEAN_ANOMALY":"279.8295","GP_ID":"230882617","OBJECT_NAME":"STARLINK-1279","LAUNCH_DATE":"2020-03-18","CENTER_NAME":"EARTH","RA_OF_ASC_NODE":"153.6720","MEAN_MOTION_DOT":"0.00005416","FILE":"3895770","MEAN_MOTION_DDOT":"0.0000000000000","ECCENTRICITY":"0.00016580","COUNTRY_CODE":"US","RCS_SIZE":"LARGE","MEAN_ELEMENT_THEORY":"SGP4","NORAD_CAT_ID":"45360","EPOCH":"2023-04-28T09:10:03.362304","OBJECT_TYPE":"PAYLOAD","PERIOD":"95.592","REV_AT_EPOCH":"17243","ELEMENT_SET_NO":"999","EPHEMERIS_TYPE":"0"},{"ECCENTRICITY":"0.00013340","MEAN_MOTION_DDOT":"0.0000000000000","COUNTRY_CODE":"US","LAUNCH_DATE":"2020-03-18","OBJECT_NAME":"STARLINK-1301","FILE":"3895967","MEAN_MOTION_DOT":"0.00003333","RA_OF_ASC_NODE":"161.6429","CENTER_NAME":"EARTH","PERIOD":"95.592","EPHEMERIS_TYPE":"0","ELEMENT_SET_NO":"999","REV_AT_EPOCH":"17237","MEAN_ELEMENT_THEORY":"SGP4","RCS_SIZE":"LARGE","OBJECT_TYPE":"PAYLOAD","EPOCH":"2023-04-28T20:01:36.216480","NORAD_CAT_ID":"45361","TLE_LINE1":"1 45361U 20019B   23118.83444695  .00003333  00000-0  24255-3 0  9992","ARG_OF_PERICENTER":"83.8352","OBJECT_ID":"2020-019B","SITE":"AFETR","SEMIMAJOR_AXIS":"6925.359","MEAN_MOTION":"15.06396519","CLASSIFICATION_TYPE":"U","REF_FRAME":"TEME","TLE_LINE2":"2 45361  53.0523 161.6429 0001334  83.8352 276.2789 15.06396519172374","PERIAPSIS":"546.300","INCLINATION":"53.0523","MEAN_ANOMALY":"276.2789","GP_ID":"230894342","BSTAR":"0.00024255000000","DECAY_DATE":null,"APOAPSIS":"548.148","TIME_SYSTEM":"UTC"},{"PERIOD":"95.592","REV_AT_EPOCH":"17203","ELEMENT_SET_NO":"999","EPHEMERIS_TYPE":"0","RCS_SIZE":"LARGE","MEAN_ELEMENT_THEORY":"SGP4","NORAD_CAT_ID":"45362","EPOCH":"2023-04-28T11:34:41.633184","OBJECT_TYPE":"PAYLOAD","MEAN_MOTION_DDOT":"0.0000000000000","ECCENTRICITY":"0.00013850","COUNTRY_CODE":"US","OBJECT_NAME":"STARLINK-1306","LAUNCH_DATE":"2020-03-18","CENTER_NAME":"EARTH","RA_OF_ASC_NODE":"183.2197","FILE":"3895770","MEAN_MOTION_DOT":"0.00004216","MEAN_ANOMALY":"266.8166","GP_ID":"230881617","BSTAR":"0.00030172000000","TIME_SYSTEM":"UTC","APOAPSIS":"548.169","DECAY_DATE":null,"OBJECT_ID":"2020-019C","TLE_LINE1":"1 45362U 20019C   23118.48242631  .00004216  00000-0  30172-3 0  9996","ARG_OF_PERICENTER":"93.2982","SITE":"AFETR","MEAN_MOTION":"15.06401374","SEMIMAJOR_AXIS":"6925.344","INCLINATION":"53.0532","PERIAPSIS":"546.250","TLE_LINE2":"2 45362  53.0532 183.2197 0001385  93.2982 266.8166 15.06401374172030","REF_FRAME":"TEME","CLASSIFICATION_TYPE":"U"},{"MEAN_ELEMENT_THEORY":"SGP4","RCS_SIZE":"LARGE","OBJECT_TYPE":"PAYLOAD","EPOCH":"2023-04-28T12:32:45.357216","NORAD_CAT_ID":"45364","PERIOD":"95.021","EPHEMERIS_TYPE":"0","ELEMENT_SET_NO":"999","REV_AT_EPOCH":"17251","LAUNCH_DATE":"2020-03-18","OBJECT_NAME":"STARLINK-1313","FILE":"3895770","MEAN_MOTION_DOT":"0.00016201","RA_OF_ASC_NODE":"148.9879","CENTER_NAME":"EARTH","ECCENTRICITY":"0.00043960","MEAN_MOTION_DDOT":"0.0000000000000","COUNTRY_CODE":"US","BSTAR":"0.00086042000000","APOAPSIS":"522.614","DECAY_DATE":null,"TIME_SYSTEM":"UTC","MEAN_ANOMALY":"330.9197","GP_ID":"230881867","SEMIMAJOR_AXIS":"6897.717","MEAN_MOTION":"15.15460705","CLASSIFICATION_TYPE":"U","REF_FRAME":"TEME","TLE_LINE2":"2 45364  53.0530 148.9879 0004396  29.2041 330.9197 15.15460705172518","PERIAPSIS":"516.550","INCLINATION":"53.0530","ARG_OF_PERICENTER":"29.2041","TLE_LINE1":"1 45364U 20019E   23118.52274719  .00016201  00000-0  86042-3 0  9999","OBJECT_ID":"2020-019E","SITE":"AFETR"},{"GP_ID":"230883117","MEAN_ANOMALY":"24.1227","TIME_SYSTEM":"UTC","DECAY_DATE":null,"APOAPSIS":"510.915","BSTAR":"0.00068176000000","SITE":"AFETR","OBJECT_ID":"2020-019F","TLE_LINE1":"1 45365U 20019F   23118.43850415  .00014293  00000-0  68176-3 0  9990","ARG_OF_PERICENTER":"335.9559","PERIAPSIS":"504.808","TLE_LINE2":"2 45365  52.9921 154.4941 0004434 335.9559  24.1227 15.19331523172365","REF_FRAME":"TEME","INCLINATION":"52.9921","CLASSIFICATION_TYPE":"U","MEAN_MOTION":"15.19331523","SEMIMAJOR_AXIS":"6885.997","ELEMENT_SET_NO":"999","REV_AT_EPOCH":"17236","EPHEMERIS_TYPE":"0","PERIOD":"94.779","NORAD_CAT_ID":"45365","OBJECT_TYPE":"PAYLOAD","EPOCH":"2023-04-28T10:31:26.758560","RCS_SIZE":"LARGE","MEAN_ELEMENT_THEORY":"SGP4","COUNTRY_CODE":"US","MEAN_MOTION_DDOT":"0.0000000000000","ECCENTRICITY":"0.00044340","RA_OF_ASC_NODE":"154.4941","CENTER_NAME":"EARTH","MEAN_MOTION_DOT":"0.00014293","FILE":"3895770","LAUNCH_DATE":"2020-03-18","OBJECT_NAME":"STARLINK-1317"},{"REV_AT_EPOCH":"17204","ELEMENT_SET_NO":"999","EPHEMERIS_TYPE":"0","PERIOD":"95.593","NORAD_CAT_ID":"45366","EPOCH":"2023-04-28T11:13:27.749856","OBJECT_TYPE":"PAYLOAD","RCS_SIZE":"LARGE","MEAN_ELEMENT_THEORY":"SGP4","COUNTRY_CODE":"US","MEAN_MOTION_DDOT":"0.0000000000000","ECCENTRICITY":"0.00016430","CENTER_NAME":"EARTH","RA_OF_ASC_NODE":"183.2940","MEAN_MOTION_DOT":"-0.00011689","FILE":"3895770","OBJECT_NAME":"STARLINK-1262","LAUNCH_DATE":"2020-03-18","GP_ID":"230882868","MEAN_ANOMALY":"274.3433","TIME_SYSTEM":"UTC","DECAY_DATE":null,"APOAPSIS":"548.389","BSTAR":"-0.00076734000000","SITE":"AFETR","OBJECT_ID":"2020-019G","ARG_OF_PERICENTER":"85.7743","TLE_LINE1":"1 45366U 20019G   23118.46768229 -.00011689  00000-0 -76734-3 0  9992","INCLINATION":"53.0525","TLE_LINE2":"2 45366  53.0525 183.2940 0001643  85.7743 274.3433 15.06387668172041","PERIAPSIS":"546.114","REF_FRAME":"TEME","CLASSIFICATION_TYPE":"U","MEAN_MOTION":"15.06387668","SEMIMAJOR_AXIS":"6925.386"},{"PERIOD":"95.593","EPHEMERIS_TYPE":"0","REV_AT_EPOCH":"17204","ELEMENT_SET_NO":"999","MEAN_ELEMENT_THEORY":"SGP4","RCS_SIZE":"LARGE","EPOCH":"2023-04-28T11:45:18.565344","OBJECT_TYPE":"PAYLOAD","NORAD_CAT_ID":"45367","ECCENTRICITY":"0.00014300","MEAN_MOTION_DDOT":"0.0000000000000","COUNTRY_CODE":"US","OBJECT_NAME":"STARLINK-1273","LAUNCH_DATE":"2020-03-18","FILE":"3895770","MEAN_MOTION_DOT":"-0.00005402","CENTER_NAME":"EARTH","RA_OF_ASC_NODE":"183.1933","MEAN_ANOMALY":"266.3915","GP_ID":"230882117","BSTAR":"-0.00034422000000","APOAPSIS":"548.265","DECAY_DATE":null,"TIME_SYSTEM":"UTC","ARG_OF_PERICENTER":"93.7238","TLE_LINE1":"1 45367U 20019H   23118.48979821 -.00005402  00000-0 -34422-3 0  9991","OBJECT_ID":"2020-019H","SITE":"AFETR","SEMIMAJOR_AXIS":"6925.410","MEAN_MOTION":"15.06380000","CLASSIFICATION_TYPE":"U","INCLINATION":"53.0530","REF_FRAME":"TEME","TLE_LINE2":"2 45367  53.0530 183.1933 0001430  93.7238 266.3915 15.06380000172040","PERIAPSIS":"546.285"},{"FILE":"3895770","MEAN_MOTION_DOT":"0.00002063","RA_OF_ASC_NODE":"182.7248","CENTER_NAME":"EARTH","LAUNCH_DATE":"2020-03-18","OBJECT_NAME":"STARLINK-1276","COUNTRY_CODE":"US","ECCENTRICITY":"0.00015560","MEAN_MOTION_DDOT":"0.0000000000000","OBJECT_TYPE":"PAYLOAD","EPOCH":"2023-04-28T14:13:56.313696","NORAD_CAT_ID":"45368","MEAN_ELEMENT_THEORY":"SGP4","RCS_SIZE":"LARGE","EPHEMERIS_TYPE":"0","ELEMENT_SET_NO":"999","REV_AT_EPOCH":"17206","PERIOD":"95.593","CLASSIFICATION_TYPE":"U","REF_FRAME":"TEME","TLE_LINE2":"2 45368  53.0526 182.7248 0001556  86.1288 273.9879 15.06390526172069","PERIAPSIS":"546.165","INCLINATION":"53.0526","SEMIMAJOR_AXIS":"6925.378","MEAN_MOTION":"15.06390526","SITE":"AFETR","TLE_LINE1":"1 45368U 20019J   23118.59301289  .00002063  00000-0  15737-3 0  9997","ARG_OF_PERICENTER":"86.1288","OBJECT_ID":"2020-019J","DECAY_DATE":null,"APOAPSIS":"548.320","TIME_SYSTEM":"UTC","BSTAR":"0.00015737000000","GP_ID":"230882366","MEAN_ANOMALY":"273.9879"},{"SITE":"AFETR","ARG_OF_PERICENTER":"93.5265","TLE_LINE1":"1 45369U 20019K   23118.65840909 -.00001981  00000-0 -11420-3 0  9997","OBJECT_ID":"2020-019K","CLASSIFICATION_TYPE":"U","TLE_LINE2":"2 45369  53.0528 182.4341 0001645  93.5265 266.5912 15.06379697172072","REF_FRAME":"TEME","PERIAPSIS":"546.137","INCLINATION":"53.0528","SEMIMAJOR_AXIS":"6925.411","MEAN_MOTION":"15.06379697","GP_ID":"230894794","MEAN_ANOMALY":"266.5912","APOAPSIS":"548.415","DECAY_DATE":null,"TIME_SYSTEM":"UTC","BSTAR":"-0.00011420000000","COUNTRY_CODE":"US","ECCENTRICITY":"0.00016450","MEAN_MOTION_DDOT":"0.0000000000000","MEAN_MOTION_DOT":"-0.00001981","FILE":"3895964","RA_OF_ASC_NODE":"182.4341","CENTER_NAME":"EARTH","LAUNCH_DATE":"2020-03-18","OBJECT_NAME":"STARLINK-1277","EPHEMERIS_TYPE":"0","ELEMENT_SET_NO":"999","REV_AT_EPOCH":"17207","PERIOD":"95.593","OBJECT_TYPE":"PAYLOAD","EPOCH":"2023-04-28T15:48:06.545376","NORAD_CAT_ID":"45369","MEAN_ELEMENT_THEORY":"SGP4","RCS_SIZE":"LARGE"},{"COUNTRY_CODE":"US","MEAN_MOTION_DDOT":"0.0000000000000","ECCENTRICITY":"0.00014350","CENTER_NAME":"EARTH","RA_OF_ASC_NODE":"183.0701","MEAN_MOTION_DOT":"0.00000459","FILE":"3895770","OBJECT_NAME":"STARLINK-1281","LAUNCH_DATE":"2020-03-18","REV_AT_EPOCH":"17205","ELEMENT_SET_NO":"999","EPHEMERIS_TYPE":"0","PERIOD":"95.592","NORAD_CAT_ID":"45370","EPOCH":"2023-04-28T12:22:26.750496","OBJECT_TYPE":"PAYLOAD","RCS_SIZE":"LARGE","MEAN_ELEMENT_THEORY":"SGP4","SITE":"AFETR","OBJECT_ID":"2020-019L","TLE_LINE1":"1 45370U 20019L   23118.51558739  .00000459  00000-0  49720-4 0  9993","ARG_OF_PERICENTER":"78.7989","INCLINATION":"53.0535","PERIAPSIS":"546.192","TLE_LINE2":"2 45370  53.0535 183.0701 0001435  78.7989 281.3161 15.06409127172055","REF_FRAME":"TEME","CLASSIFICATION_TYPE":"U","MEAN_MOTION":"15.06409127","SEMIMAJOR_AXIS":"6925.321","GP_ID":"230883367","MEAN_ANOMALY":"281.3161","TIME_SYSTEM":"UTC","APOAPSIS":"548.179","DECAY_DATE":null,"BSTAR":"0.00004972000000"}];
